ONEWEB-0116             
1 48046U 21025E   25144.92560043  .00000290  00000+0  75921-3 0  9994
2 48046  87.8991  37.3623 0001687  77.7271 282.4047 13.13473232202687
ONEWEB-0150             
1 48047U 21025F   25144.74954395  .00000009  00000+0 -98587-5 0  9996
2 48047  87.8984  37.3966 0001953  76.2423 283.8923 13.13471373202557
ONEWEB-0107             
1 48048U 21025G   25144.75124845  .00000037  00000+0  66922-4 0  9994
2 48048  87.8982  37.3941 0002123  85.7442 274.3930 13.13471820202533
ONEWEB-0101             
1 48049U 21025H   25144.94253535 -.00000108  00000+0 -33165-3 0  9998
2 48049  87.8991  37.3922 0001871  84.3718 275.7624 13.13469973202534
ONEWEB-0113             
1 48050U 21025J   25144.73216513 -.00000249  00000+0 -71049-3 0  9991
2 48050  87.8988  37.3957 0001842  74.9354 285.1979 13.13972263202594
ONEWEB-0112             
1 48051U 21025K   25144.75630410  .00000150  00000+0  37574-3 0  9994
2 48051  87.8985  37.3902 0001897  77.8549 282.2793 13.13472312202604
ONEWEB-0156             
1 48052U 21025L   25144.76477006  .00000258  00000+0  67199-3 0  9991
2 48052  87.8984  37.3980 0002034  79.9551 280.1808 13.13473117202585
ONEWEB-0161             
1 48053U 21025M   25144.73937502 -.00000371  00000+0 -10506-2 0  9998
2 48053  87.8989  37.4202 0002036  82.1138 278.0222 13.13469742202516
